NORAD_CAT_ID,OBJECT_NAME,OBJECT_TYPE,EPOCH,MEAN_MOTION,ECCENTRICITY,INCLINATION,RA_OF_ASC_NODE,ARG_OF_PERICENTER,MEAN_ANOMALY,BSTAR,MEAN_MOTION_DOT,MEAN_MOTION_DDOT,TLE_LINE0,TLE_LINE1,TLE_LINE2,SEMIMAJOR_AXIS,PERIOD,APOGEE,PERIGEE,DECAYED
53971.0,STARLINK-4639,PAYLOAD,2024-04-30 01:35:27,15.08848603,0.0001431,53.2174,30.5376,92.6183,267.4973,0.00047668,7.308e-05,0.0,0 STARLINK-4639,1 53971U 22125H   24121.06629388  .00007308  00000-0  47668-3 0  9991,2 53971  53.2174  30.5376 0001431  92.6183 267.4973 15.08848603 86949,6917.854,95.437,540.709,538.729,0.0
53971.0,STARLINK-4639,PAYLOAD,2024-04-30 11:07:46,15.08846864,0.0001497,53.2174,28.7532,81.2337,278.8824,0.00050559,7.769e-05,0.0,0 STARLINK-4639,1 53971U 22125H   24121.46373479  .00007769  00000-0  50559-3 0  9996,2 53971  53.2174  28.7532 0001497  81.2337 278.8824 15.08846864 86936,6917.859,95.437,540.76,538.689,0.0
53971.0,STARLINK-4639,PAYLOAD,2024-04-30 22:15:28,15.08848902,0.0001534,53.2171,26.6719,82.2242,277.8924,0.00048529,7.446e-05,0.0,0 STARLINK-4639,1 53971U 22125H   24121.92741414  .00007446  00000-0  48529-3 0  9991,2 53971  53.2171  26.6719 0001534  82.2242 277.8924 15.08848902 87009,6917.853,95.437,540.779,538.657,0.0
53971.0,STARLINK-4639,PAYLOAD,2024-05-01 10:58:33,15.08852441,0.00015,53.2168,24.2932,82.2836,277.8326,0.00037351,5.663e-05,0.0,0 STARLINK-4639,1 53971U 22125H   24122.45733060  .00005663  00000-0  37351-3 0  9998,2 53971  53.2168  24.2932 0001500  82.2836 277.8326 15.08852441 87153,6917.842,95.437,540.745,538.67,0.0
53971.0,STARLINK-4639,PAYLOAD,2024-05-02 02:52:24,15.0885244,0.0001608,53.2186,21.3171,91.0734,269.0443,0.00022305,3.265e-05,0.0,0 STARLINK-4639,1 53971U 22125H   24123.11972788  .00003265  00000-0  22305-3 0  9993,2 53971  53.2186  21.3171 0001608  91.0734 269.0443 15.08852440 87253,6917.842,95.437,540.82,538.595,0.0
53971.0,STARLINK-4639,PAYLOAD,2024-05-02 10:49:20,15.08839911,0.0001855,53.2173,19.8323,81.288,278.8322,2.8363e-05,1.63e-06,0.0,0 STARLINK-4639,1 53971U 22125H   24123.45093381  .00000163  00000-0  28363-4 0  9998,2 53971  53.2173  19.8323 0001855  81.2880 278.8322 15.08839911 87305,6917.881,95.438,541.029,538.462,0.0
53971.0,STARLINK-4639,PAYLOAD,2024-05-02 23:32:25,15.08845798,0.0001491,53.2181,17.4526,87.6511,272.4652,0.00010482,1.381e-05,0.0,0 STARLINK-4639,1 53971U 22125H   24123.98085048  .00001381  00000-0  10482-3 0  9992,2 53971  53.2181  17.4526 0001491  87.6511 272.4652 15.08845798 87317,6917.863,95.437,540.759,538.696,0.0
53971.0,STARLINK-4639,PAYLOAD,2024-05-03 20:12:27,15.08830119,0.000105,53.218,13.5844,82.9742,277.137,2.9517e-05,1.82e-06,0.0,0 STARLINK-4639,1 53971U 22125H   24124.84197933  .00000182  00000-0  29517-4 0  9993,2 53971  53.2180  13.5844 0001050  82.9742 277.1370 15.08830119 87513,6917.911,95.438,540.502,539.049,0.0
53971.0,STARLINK-4639,PAYLOAD,2024-05-03 23:23:13,15.08830731,0.0001164,53.2177,12.99,101.4402,258.6721,5.1307e-06,-2.06e-06,0.0,0 STARLINK-4639,1 53971U 22125H   24124.97446039 -.00000206  00000-0  51307-5 0  9992,2 53971  53.2177  12.9900 0001164 101.4402 258.6721 15.08830731 87469,6917.909,95.438,540.579,538.968,0.0
53971.0,STARLINK-4639,PAYLOAD,2024-05-04 23:14:00,15.0884787,0.0001095,53.2175,8.5332,103.1228,256.9886,0.00041511,6.326e-05,0.0,0 STARLINK-4639,1 53971U 22125H   24125.96805941  .00006326  00000-0  41511-3 0  9995,2 53971  53.2175   8.5332 0001095 103.1228 256.9886 15.08847870 87684,6917.856,95.437,540.479,538.964,0.0
53971.0,STARLINK-4639,PAYLOAD,2024-05-05 19:54:00,15.08851086,0.0001152,53.2174,4.6684,109.1261,250.9856,0.00035527,5.372e-05,0.0,0 STARLINK-4639,1 53971U 22125H   24126.82917701  .00005372  00000-0  35527-3 0  9999,2 53971  53.2174   4.6684 0001152 109.1261 250.9856 15.08851086 87817,6917.847,95.437,540.508,538.915,0.0
53971.0,STARLINK-4639,PAYLOAD,2024-05-05 23:04:47,15.08854436,0.0001148,53.2173,4.0735,108.9499,251.1618,0.00040424,6.154e-05,0.0,0 STARLINK-4639,1 53971U 22125H   24126.96165560  .00006154  00000-0  40424-3 0  9993,2 53971  53.2173   4.0735 0001148 108.9499 251.1618 15.08854436 87767,6917.836,95.437,540.495,538.907,0.0
53971.0,STARLINK-4639,PAYLOAD,2024-05-06 00:40:10,15.08859113,0.0001181,53.2178,3.7754,105.9828,254.1294,0.00049345,7.578e-05,0.0,0 STARLINK-4639,1 53971U 22125H   24127.02789386  .00007578  00000-0  49345-3 0  9991,2 53971  53.2178   3.7754 0001181 105.9828 254.1294 15.08859113 87770,6917.822,95.436,540.504,538.87,0.0
53971.0,STARLINK-4639,PAYLOAD,2024-05-06 21:20:10,15.08847119,0.0001316,53.2184,359.9109,94.9815,265.1327,8.7009e-05,1.097e-05,0.0,0 STARLINK-4639,1 53971U 22125H   24127.88901149  .00001097  00000-0  87009-4 0  9998,2 53971  53.2184 359.9109 0001316  94.9815 265.1327 15.08847119 87974,6917.859,95.437,540.634,538.813,0.0
53971.0,STARLINK-4639,PAYLOAD,2024-05-07 08:27:52,15.08841139,0.0001305,53.2171,357.8271,96.2898,263.8243,-3.3806e-05,-8.26e-06,0.0,0 STARLINK-4639,1 53971U 22125H   24128.35269356 -.00000826  00000-0 -33806-4 0  9995,2 53971  53.2171 357.8271 0001305  96.2898 263.8243 15.08841139 88048,6917.877,95.437,540.645,538.839,0.0
53971.0,STARLINK-4639,PAYLOAD,2024-05-07 21:10:58,15.088316,0.0001388,53.2184,355.4497,93.4951,266.62,-0.00016193,-2.863e-05,0.0,0 STARLINK-4639,1 53971U 22125H   24128.88261904 -.00002863  00000-0 -16193-3 0  9996,2 53971  53.2184 355.4497 0001388  93.4951 266.6200 15.08831600 88053,6917.906,95.438,540.731,538.811,0.0
53971.0,STARLINK-4639,PAYLOAD,2024-05-08 00:21:44,15.08837256,0.0001237,53.2167,354.8526,94.7842,265.3291,-9.4238e-05,-1.787e-05,0.0,0 STARLINK-4639,1 53971U 22125H   24129.01509833 -.00001787  00000-0 -94238-4 0  9999,2 53971  53.2167 354.8526 0001237  94.7842 265.3291 15.08837256 88145,6917.889,95.438,540.61,538.898,0.0
53971.0,STARLINK-4639,PAYLOAD,2024-05-08 08:18:40,15.08838267,0.0001408,53.2175,353.3669,95.5798,264.5355,-3.0417e-05,-7.72e-06,0.0,0 STARLINK-4639,1 53971U 22125H   24129.34630011 -.00000772  00000-0 -30417-4 0  9990,2 53971  53.2175 353.3669 0001408  95.5798 264.5355 15.08838267 88128,6917.886,95.438,540.725,538.777,0.0
53971.0,STARLINK-4639,PAYLOAD,2024-05-08 21:01:45,15.08843621,0.0001015,53.2152,350.9873,96.3425,263.7683,0.00020571,2.988e-05,0.0,0 STARLINK-4639,1 53971U 22125H   24129.87621770  .00002988  00000-0  20571-3 0  9998,2 53971  53.2152 350.9873 0001015  96.3425 263.7683 15.08843621 88207,6917.869,95.437,540.436,539.032,0.0
53971.0,STARLINK-4639,PAYLOAD,2024-05-09 20:52:32,15.08846173,9.51e-05,53.2159,346.5265,102.3105,257.7993,0.0002608,3.866e-05,0.0,0 STARLINK-4639,1 53971U 22125H   24130.86982021  .00003866  00000-0  26080-3 0  9995,2 53971  53.2159 346.5265 0000951 102.3105 257.7993 15.08846173 88427,6917.862,95.437,540.384,539.069,0.0
53971.0,STARLINK-4639,PAYLOAD,2024-05-10 14:21:47,15.08842975,0.0001081,53.2181,343.251,113.6237,246.4868,0.00014215,1.975e-05,0.0,0 STARLINK-4639,1 53971U 22125H   24131.59846197  .00001975  00000-0  14215-3 0  9995,2 53971  53.2181 343.2510 0001081 113.6237 246.4868 15.08842975 88461,6917.871,95.437,540.484,538.988,0.0
53971.0,STARLINK-4639,PAYLOAD,2024-05-10 19:07:56,15.08845643,0.000124,53.2164,342.3608,120.2926,239.8189,0.00018698,2.69e-05,0.0,0 STARLINK-4639,1 53971U 22125H   24131.79717937  .00002690  00000-0  18698-3 0  9990,2 53971  53.2164 342.3608 0001240 120.2926 239.8189 15.08845643 88564,6917.863,95.437,540.586,538.87,0.0
53971.0,STARLINK-4639,PAYLOAD,2024-05-11 18:58:41,15.08826722,0.0002044,53.2179,337.9009,23.8151,336.2935,-0.00076608,-0.00012455,0.0,0 STARLINK-4639,1 53971U 22125H   24132.79076207 -.00012455  00000-0 -76608-3 0  9996,2 53971  53.2179 337.9009 0002044  23.8151 336.2935 15.08826722 88643,6917.921,95.438,541.2,538.372,0.0
53971.0,STARLINK-4639,PAYLOAD,2024-05-12 06:06:26,15.08788597,0.0001283,53.2173,335.815,70.1582,289.9548,-0.0012105,-0.00019474,0.0,0 STARLINK-4639,1 53971U 22125H   24133.25447099 -.00019474  00000-0 -12105-2 0  9998,2 53971  53.2173 335.8150 0001283  70.1582 289.9548 15.08788597 88784,6918.038,95.441,540.79,539.015,0.0
53971.0,STARLINK-4639,PAYLOAD,2024-05-12 14:03:23,15.08777351,0.0001109,53.2175,334.3341,97.5453,262.5665,-0.0011335,-0.00018251,0.0,0 STARLINK-4639,1 53971U 22125H   24133.58568850 -.00018251  00000-0 -11335-2 0  9999,2 53971  53.2175 334.3341 0001109  97.5453 262.5665 15.08777351 88760,6918.072,95.442,540.704,539.17,0.0
53971.0,STARLINK-4639,PAYLOAD,2024-05-12 20:24:55,15.08824341,0.000151,53.2181,333.1505,89.6488,270.4677,0.00012964,1.775e-05,0.0,0 STARLINK-4639,1 53971U 22125H   24133.85064111  .00001775  00000-0  12964-3 0  9991,2 53971  53.2181 333.1505 0001510  89.6488 270.4677 15.08824341 88877,6917.928,95.439,540.838,538.749,0.0
53971.0,STARLINK-4639,PAYLOAD,2024-05-13 05:57:14,15.08825688,0.0001509,53.2181,331.3614,92.0081,268.1084,0.0010726,0.00016817,0.0,0 STARLINK-4639,1 53971U 22125H   24134.24808796  .00016817  00000-0  10726-2 0  9996,2 53971  53.2181 331.3614 0001509  92.0081 268.1084 15.08825688 88863,6917.924,95.438,540.833,538.745,0.0
53971.0,STARLINK-4639,PAYLOAD,2024-05-13 20:15:42,15.08850042,0.0001609,53.2168,328.6865,76.9755,283.1417,0.0010492,0.00016454,0.0,0 STARLINK-4639,1 53971U 22125H   24134.84424407  .00016454  00000-0  10492-2 0  9992,2 53971  53.2168 328.6865 0001609  76.9755 283.1417 15.08850042 89023,6917.85,95.437,540.828,538.602,0.0
53971.0,STARLINK-4639,PAYLOAD,2024-05-14 12:09:33,15.08854763,0.0001546,53.2147,325.7108,80.6171,279.4996,0.00044223,6.76e-05,0.0,0 STARLINK-4639,1 53971U 22125H   24135.50663680  .00006760  00000-0  44223-3 0  9993,2 53971  53.2147 325.7108 0001546  80.6171 279.4996 15.08854763 89127,6917.835,95.437,540.77,538.631,0.0
53971.0,STARLINK-4639,PAYLOAD,2024-05-14 21:41:51,15.08869669,0.0001756,53.2148,323.9268,86.8092,273.3101,0.00044499,6.807e-05,0.0,0 STARLINK-4639,1 53971U 22125H   24135.90406519  .00006807  00000-0  44499-3 0  9990,2 53971  53.2148 323.9268 0001756  86.8092 273.3101 15.08869669 89119,6917.79,95.436,540.869,538.44,0.0
